OBJECT_NAME,OBJECT_ID,EPOCH,MEAN_MOTION,ECCENTRICITY,INCLINATION,RA_OF_ASC_NODE,ARG_OF_PERICENTER,MEAN_ANOMALY,EPHEMERIS_TYPE,CLASSIFICATION_TYPE,NORAD_CAT_ID,ELEMENT_SET_NO,REV_AT_EPOCH,BSTAR,MEAN_MOTION_DOT,MEAN_MOTION_DDOT
KUZGTU 1 (RS47S),2023-091AV,2026-06-15T03:17:40.020000,15.29823419,.0012346,97.5069,230.5962,104.3201,255.9411,0,U,57217,999,16406,.40859E-3,.11756E-3,0
SONATE-2,2024-043Q,2026-06-15T03:33:16.170048,15.58581911,.000699,97.5526,316.4190,202.2408,157.8545,0,U,59112,999,12757,.45384E-3,.34764E-3,0
MESAT1,2024-125G,2026-06-15T02:55:15.013056,15.63008621,.0009307,97.2285,23.5579,211.2256,148.8451,0,U,60209,999,10924,.59972E-3,.54646E-3,0
OOV-CUBE (TUBSAT-30),2024-128F,2026-06-14T17:26:18.436128,15.02765736,.0044922,61.9946,234.1532,133.1554,227.3306,0,U,60240,999,10574,.16016074E-3,.1982E-4,0
COLIBRI-S (RS67S),2024-199M,2026-06-15T04:29:01.858848,15.47654459,.0006253,97.2996,40.0233,288.4389,71.6181,0,U,61746,999,13710,.34845E-3,.1793E-3,0
HORS 3 (RS81S),2024-199U,2026-06-15T03:48:44.098272,15.54852856,.0003714,97.2982,41.9598,290.6239,69.4616,0,U,61753,999,13724,.44651E-3,.29747E-3,0
HORS 4 (RS82S),2024-199V,2026-06-15T04:33:08.985312,15.59523296,.0003009,97.2927,43.1799,271.5093,88.5819,0,U,61754,999,13733,.52739E-3,.4188E-3,0
SIT-2086,2024-199AF,2026-06-15T03:13:51.472128,15.52963819,.0004408,97.2938,42.4188,261.5071,98.5683,0,U,61764,999,13411,.50375E-3,.31359E-3,0
HYPERVIEW 1G (RS66S),2024-199AP,2026-06-15T03:46:29.385984,15.75374882,.0003315,97.2880,45.7752,229.7117,130.3859,0,U,61772,999,13435,.82229E-3,.125361E-2,0
ALTAIR (RS65S),2024-199AW,2026-06-15T03:48:48.129696,15.36995227,.00113,97.3031,35.5237,319.4401,40.6001,0,U,61779,999,13680,.21705E-3,.7789E-4,0
ASRTU-1 (AO-123),2024-199AY,2026-06-15T03:28:49.347840,15.35650241,.0012481,97.3002,34.8347,322.3491,37.6878,0,U,61781,999,13361,.18073E-3,.6198E-4,0
SAMSAT-IONOSPHERE (RS75S),2024-199BB,2026-06-15T04:42:38.968704,15.57473554,.0005828,97.2949,42.0374,286.9717,73.0900,0,U,61784,999,13725,.543E-3,.39939E-3,0
RTU MIREA 1 (RS51S),2024-199BC,2026-06-15T03:51:48.685824,15.60898480,.0005493,97.2937,42.8229,278.8517,81.2118,0,U,61785,999,13415,.55137E-3,.46189E-3,0
TEVEL2-4,2025-052D,2026-06-15T03:51:32.562720,15.34549992,.0004846,97.3913,62.5494,107.3580,252.8193,0,U,63213,999,6980,.44473E-3,.14823E-3,0
TEVEL2-5,2025-052E,2026-06-14T23:39:00.408096,15.34373171,.0004738,97.3911,62.3224,109.0151,251.1605,0,U,63214,999,6977,.5193E-3,.1723E-3,0
TEVEL2-6,2025-052F,2026-06-14T16:07:07.630176,15.34327721,.00046502,97.3918,61.9926,109.6687,250.5058,0,U,63215,999,6972,.53470218E-3,.17719E-3,0
TEVEL2-1,2025-052H,2026-06-14T23:03:26.975232,15.33805497,.0004673,97.3885,61.9091,117.9642,242.2074,0,U,63217,999,6975,.49853E-3,.16241E-3,0
TEVEL2-3,2025-052J,2026-06-14T22:55:51.055392,15.33859828,.0004639,97.3891,61.9254,117.9650,242.2062,0,U,63218,999,6975,.49801E-3,.16252E-3,0
TEVEL2-2,2025-052K,2026-06-14T23:03:55.177056,15.33813311,.0004646,97.3889,61.9119,118.6626,241.5084,0,U,63219,999,6975,.49665E-3,.16183E-3,0
TEVEL2-9,2025-052AD,2026-06-14T16:11:00.475584,15.31831968,.00075952,97.3950,61.0056,137.7538,222.4290,0,U,63237,999,6964,.49429071E-3,.1514E-3,0
TEVEL2-7,2025-052AE,2026-06-15T04:07:48.360000,15.31550920,.0007733,97.3951,61.4196,136.7836,223.4013,0,U,63238,999,6971,.42549E-3,.12905E-3,0
TEVEL2-8,2025-052AF,2026-06-15T04:19:39.532224,15.31535260,.0007744,97.3951,61.4046,137.5437,222.6405,0,U,63239,999,6971,.43385E-3,.13154E-3,0
INNOSAT 16 (RS92S7),2025-155C,2026-06-15T03:58:04.849824,15.25437906,.0010309,97.4561,133.2995,182.4540,177.6649,0,U,64878,999,8036,.18811E-3,.4688E-4,0
GEOSCAN 6 (RS92S6),2025-155D,2026-06-15T03:42:11.347200,15.30119368,.0008085,97.4554,134.6983,169.0003,191.1416,0,U,64879,999,8045,.31472E-3,.9106E-4,0
GEOSCAN 1 (RS92S1),2025-155E,2026-06-15T03:46:51.047328,15.30710669,.0008032,97.4551,134.8477,168.7369,191.4053,0,U,64880,999,8046,.29629E-3,.8726E-4,0
239ALFEROV (RS61S),2025-155F,2026-06-15T04:41:18.303936,15.32892456,.0007777,97.4550,135.4405,165.3182,194.8287,0,U,64881,999,8050,.38602E-3,.12201E-3,0
GEOSCAN 2 (RS92S2),2025-155Q,2026-06-15T03:38:16.441152,15.30981182,.000788,97.4548,134.9935,155.5342,204.6274,0,U,64890,999,8047,.28119E-3,.8347E-4,0
GEOSCAN 5 (RS92S5),2025-155R,2026-06-15T04:26:05.660736,15.33210594,.0006472,97.4542,135.5666,168.7848,191.3539,0,U,64891,999,8051,.36922E-3,.1178E-3,0
GEOSCAN 4 (RS92S4),2025-155S,2026-06-15T04:03:37.215072,15.33363339,.0006524,97.4546,135.5987,168.5561,191.5830,0,U,64892,999,8051,.36257E-3,.11622E-3,0
GEOSCAN 3 (RS92S3),2025-155T,2026-06-15T04:08:26.958336,15.35336368,.0006462,97.4534,136.0260,166.6706,193.4709,0,U,64893,999,8054,.41438E-3,.14158E-3,0
