KUZGTU 1 (RS47S)        
1 57217U 23091AV  26166.13726875  .00011756  00000+0  40859-3 0  9995
2 57217  97.5069 230.5962 0012346 104.3201 255.9411 15.29823419164062
SONATE-2                
1 59112U 24043Q   26166.14810382  .00034764  00000+0  45384-3 0  9999
2 59112  97.5526 316.4190 0006990 202.2408 157.8545 15.58581911127571
MESAT1                  
1 60209U 24125G   26166.12170154  .00054646  00000+0  59972-3 0  9992
2 60209  97.2285  23.5579 0009307 211.2256 148.8451 15.63008621109240
OOV-CUBE (TUBSAT-30)    
1 60240U 24128F   26165.72660227  .00001982  00000+0  16016-3 0  9997
2 60240  61.9946 234.1532 0044922 133.1554 227.3306 15.02765736105744
COLIBRI-S (RS67S)       
1 61746U 24199M   26166.18682707  .00017930  00000+0  34845-3 0  9995
2 61746  97.2996  40.0233 0006253 288.4389  71.6181 15.47654459137104
HORS 3 (RS81S)          
1 61753U 24199U   26166.15884373  .00029747  00000+0  44651-3 0  9998
2 61753  97.2982  41.9598 0003714 290.6239  69.4616 15.54852856137241
HORS 4 (RS82S)          
1 61754U 24199V   26166.18968733  .00041880  00000+0  52739-3 0  9993
2 61754  97.2927  43.1799 0003009 271.5093  88.5819 15.59523296137336
SIT-2086                
1 61764U 24199AF  26166.13462352  .00031359  00000+0  50375-3 0  9999
2 61764  97.2938  42.4188 0004408 261.5071  98.5683 15.52963819134117
HYPERVIEW 1G (RS66S)    
1 61772U 24199AP  26166.15728456  .00125361  00000+0  82229-3 0  9990
2 61772  97.2880  45.7752 0003315 229.7117 130.3859 15.75374882134355
ALTAIR (RS65S)          
1 61779U 24199AW  26166.15889039  .00007789  00000+0  21705-3 0  9997
2 61779  97.3031  35.5237 0011300 319.4401  40.6001 15.36995227136805
ASRTU-1 (AO-123)        
1 61781U 24199AY  26166.14501560  .00006198  00000+0  18073-3 0  9996
2 61781  97.3002  34.8347 0012481 322.3491  37.6878 15.35650241133610
SAMSAT-IONOSPHERE (RS7*)
1 61784U 24199BB  26166.19628436  .00039939  00000+0  54300-3 0  9998
2 61784  97.2949  42.0374 0005828 286.9717  73.0900 15.57473554137254
RTU MIREA 1 (RS51S)     
1 61785U 24199BC  26166.16098016  .00046189  00000+0  55137-3 0  9995
2 61785  97.2937  42.8229 0005493 278.8517  81.2118 15.60898480134156
TEVEL2-4                
1 63213U 25052D   26166.16079355  .00014823  00000+0  44473-3 0  9998
2 63213  97.3913  62.5494 0004846 107.3580 252.8193 15.34549992 69809
TEVEL2-5                
1 63214U 25052E   26165.98542139  .00017230  00000+0  51930-3 0  9994
2 63214  97.3911  62.3224 0004738 109.0151 251.1605 15.34373171 69770
TEVEL2-6                
1 63215U 25052F   26165.67161609  .00017719  00000+0  53470-3 0  9993
2 63215  97.3918  61.9926 0004650 109.6687 250.5058 15.34327721 69725
TEVEL2-1                
1 63217U 25052H   26165.96072888  .00016241  00000+0  49853-3 0  9996
2 63217  97.3885  61.9091 0004673 117.9642 242.2074 15.33805497 69750
TEVEL2-3                
1 63218U 25052J   26165.95545203  .00016252  00000+0  49801-3 0  9997
2 63218  97.3891  61.9254 0004639 117.9650 242.2062 15.33859828 69754
TEVEL2-2                
1 63219U 25052K   26165.96105529  .00016183  00000+0  49665-3 0  9993
2 63219  97.3889  61.9119 0004646 118.6626 241.5084 15.33813311 69754
TEVEL2-9                
1 63237U 25052AD  26165.67431106  .00015140  00000+0  49429-3 0  9994
2 63237  97.3950  61.0056 0007595 137.7538 222.4290 15.31831968 69645
TEVEL2-7                
1 63238U 25052AE  26166.17208750  .00012905  00000+0  42549-3 0  9990
2 63238  97.3951  61.4196 0007733 136.7836 223.4013 15.31550920 69718
TEVEL2-8                
1 63239U 25052AF  26166.18031866  .00013154  00000+0  43385-3 0  9990
2 63239  97.3951  61.4046 0007744 137.5437 222.6405 15.31535260 69717
INNOSAT 16 (RS92S7)     
1 64878U 25155C   26166.16533391  .00004688  00000+0  18811-3 0  9990
2 64878  97.4561 133.2995 0010309 182.4540 177.6649 15.25437906 80365
GEOSCAN 6 (RS92S6)      
1 64879U 25155D   26166.15429800  .00009106  00000+0  31472-3 0  9997
2 64879  97.4554 134.6983 0008085 169.0003 191.1416 15.30119368 80451
GEOSCAN 1 (RS92S1)      
1 64880U 25155E   26166.15753527  .00008726  00000+0  29629-3 0  9993
2 64880  97.4551 134.8477 0008032 168.7369 191.4053 15.30710669 80465
239ALFEROV (RS61S)      
1 64881U 25155F   26166.19535074  .00012201  00000+0  38602-3 0  9997
2 64881  97.4550 135.4405 0007777 165.3182 194.8287 15.32892456 80502
GEOSCAN 2 (RS92S2)      
1 64890U 25155Q   26166.15157918  .00008347  00000+0  28119-3 0  9998
2 64890  97.4548 134.9935 0007880 155.5342 204.6274 15.30981182 80470
GEOSCAN 5 (RS92S5)      
1 64891U 25155R   26166.18478774  .00011780  00000+0  36922-3 0  9994
2 64891  97.4542 135.5666 0006472 168.7848 191.3539 15.33210594 80512
GEOSCAN 4 (RS92S4)      
1 64892U 25155S   26166.16918073  .00011622  00000+0  36257-3 0  9990
2 64892  97.4546 135.5987 0006524 168.5561 191.5830 15.33363339 80513
GEOSCAN 3 (RS92S3)      
1 64893U 25155T   26166.17253424  .00014158  00000+0  41438-3 0  9998
2 64893  97.4534 136.0260 0006462 166.6706 193.4709 15.35336368 80545
